TDRS 11                 
1 39070U 13004A   26065.76096322  .00000078  00000+0  00000+0 0  9994
2 39070   3.3708  29.3976 0004011 351.4541 243.2652  1.00277400 45663
TDRS 12                 
1 39504U 14004A   26065.78739668 -.00000272  00000+0  00000+0 0  9993
2 39504   3.8782  17.2844 0003857 268.3005 121.4630  1.00269248 43257
GPM-CORE                
1 39574U 14009C   26065.79677335  .00009926  00000+0  21641-3 0  9990
2 39574  64.9727 291.1783 0012429 265.1968  94.7753 15.44656676681999
MMS 1                   
1 40482U 15011A   26065.91668981 -.00001930  00000+0  00000+0 0  9995
2 40482  70.7971 350.1930 8417401 165.2374 307.0363  0.28284285  1344
MMS 2                   
1 40483U 15011B   26065.91668981 -.00001930  00000+0  00000+0 0  9996
2 40483  70.7974 350.1951 8418132 165.2435 307.0200  0.28284286  1342
MMS 3                   
1 40484U 15011C   26065.91668981 -.00001931  00000+0  00000+0 0  9998
2 40484  70.7990 350.1996 8417611 165.2342 307.0442  0.28276142  1348
MMS 4                   
1 40485U 15011D   26065.91668981 -.00001930  00000+0  00000+0 0  9998
2 40485  70.7978 350.1949 8416918 165.2449 307.0140  0.28284273  1349
TDRS 13                 
1 42915U 17047A   26065.36542251 -.00000103  00000+0  00000+0 0  9990
2 42915   3.4299   0.1131 0010456  98.7690 185.2817  1.00272313 31310
NOAA 20 (JPSS-1)        
1 43013U 17073A   26065.58607575  .00000127  00000+0  81391-4 0  9996
2 43013  98.7689   6.0041 0001077 141.2468 218.8786 14.19535120429918
