[{"OBJECT_NAME":"TDRS 11","OBJECT_ID":"2013-004A","EPOCH":"2026-03-06T18:15:47.222208","MEAN_MOTION":1.002774,"ECCENTRICITY":0.0004011,"INCLINATION":3.3708,"RA_OF_ASC_NODE":29.3976,"ARG_OF_PERICENTER":351.4541,"MEAN_ANOMALY":243.2652,"EPHEMERIS_TYPE":0,"CLASSIFICATION_TYPE":"U","NORAD_CAT_ID":39070,"ELEMENT_SET_NO":999,"REV_AT_EPOCH":4566,"BSTAR":0,"MEAN_MOTION_DOT":7.8e-7,"MEAN_MOTION_DDOT":0},{"OBJECT_NAME":"TDRS 12","OBJECT_ID":"2014-004A","EPOCH":"2026-03-06T18:53:51.073152","MEAN_MOTION":1.00269248,"ECCENTRICITY":0.0003857,"INCLINATION":3.8782,"RA_OF_ASC_NODE":17.2844,"ARG_OF_PERICENTER":268.3005,"MEAN_ANOMALY":121.463,"EPHEMERIS_TYPE":0,"CLASSIFICATION_TYPE":"U","NORAD_CAT_ID":39504,"ELEMENT_SET_NO":999,"REV_AT_EPOCH":4325,"BSTAR":0,"MEAN_MOTION_DOT":-2.72e-6,"MEAN_MOTION_DDOT":0},{"OBJECT_NAME":"GPM-CORE","OBJECT_ID":"2014-009C","EPOCH":"2026-03-06T19:07:21.217440","MEAN_MOTION":15.44656676,"ECCENTRICITY":0.0012429,"INCLINATION":64.9727,"RA_OF_ASC_NODE":291.1783,"ARG_OF_PERICENTER":265.1968,"MEAN_ANOMALY":94.7753,"EPHEMERIS_TYPE":0,"CLASSIFICATION_TYPE":"U","NORAD_CAT_ID":39574,"ELEMENT_SET_NO":999,"REV_AT_EPOCH":68199,"BSTAR":0.00021641,"MEAN_MOTION_DOT":9.926e-5,"MEAN_MOTION_DDOT":0},{"OBJECT_NAME":"MMS 1","OBJECT_ID":"2015-011A","EPOCH":"2026-03-06T22:00:01.999584","MEAN_MOTION":0.28284285,"ECCENTRICITY":0.8417401,"INCLINATION":70.7971,"RA_OF_ASC_NODE":350.193,"ARG_OF_PERICENTER":165.2374,"MEAN_ANOMALY":307.0363,"EPHEMERIS_TYPE":0,"CLASSIFICATION_TYPE":"U","NORAD_CAT_ID":40482,"ELEMENT_SET_NO":999,"REV_AT_EPOCH":134,"BSTAR":0,"MEAN_MOTION_DOT":-1.93e-5,"MEAN_MOTION_DDOT":0},{"OBJECT_NAME":"MMS 2","OBJECT_ID":"2015-011B","EPOCH":"2026-03-06T22:00:01.999584","MEAN_MOTION":0.28284286,"ECCENTRICITY":0.8418132,"INCLINATION":70.7974,"RA_OF_ASC_NODE":350.1951,"ARG_OF_PERICENTER":165.2435,"MEAN_ANOMALY":307.02,"EPHEMERIS_TYPE":0,"CLASSIFICATION_TYPE":"U","NORAD_CAT_ID":40483,"ELEMENT_SET_NO":999,"REV_AT_EPOCH":134,"BSTAR":0,"MEAN_MOTION_DOT":-1.93e-5,"MEAN_MOTION_DDOT":0},{"OBJECT_NAME":"MMS 3","OBJECT_ID":"2015-011C","EPOCH":"2026-03-06T22:00:01.999584","MEAN_MOTION":0.28276142,"ECCENTRICITY":0.8417611,"INCLINATION":70.799,"RA_OF_ASC_NODE":350.1996,"ARG_OF_PERICENTER":165.2342,"MEAN_ANOMALY":307.0442,"EPHEMERIS_TYPE":0,"CLASSIFICATION_TYPE":"U","NORAD_CAT_ID":40484,"ELEMENT_SET_NO":999,"REV_AT_EPOCH":134,"BSTAR":0,"MEAN_MOTION_DOT":-1.931e-5,"MEAN_MOTION_DDOT":0},{"OBJECT_NAME":"MMS 4","OBJECT_ID":"2015-011D","EPOCH":"2026-03-06T22:00:01.999584","MEAN_MOTION":0.28284273,"ECCENTRICITY":0.8416918,"INCLINATION":70.7978,"RA_OF_ASC_NODE":350.1949,"ARG_OF_PERICENTER":165.2449,"MEAN_ANOMALY":307.014,"EPHEMERIS_TYPE":0,"CLASSIFICATION_TYPE":"U","NORAD_CAT_ID":40485,"ELEMENT_SET_NO":999,"REV_AT_EPOCH":134,"BSTAR":0,"MEAN_MOTION_DOT":-1.93e-5,"MEAN_MOTION_DDOT":0},{"OBJECT_NAME":"TDRS 13","OBJECT_ID":"2017-047A","EPOCH":"2026-03-06T08:46:12.504864","MEAN_MOTION":1.00272313,"ECCENTRICITY":0.00104564,"INCLINATION":3.4299,"RA_OF_ASC_NODE":0.1131,"ARG_OF_PERICENTER":98.769,"MEAN_ANOMALY":185.2817,"EPHEMERIS_TYPE":0,"CLASSIFICATION_TYPE":"U","NORAD_CAT_ID":42915,"ELEMENT_SET_NO":999,"REV_AT_EPOCH":3131,"BSTAR":0,"MEAN_MOTION_DOT":-1.03e-6,"MEAN_MOTION_DDOT":0},{"OBJECT_NAME":"NOAA 20 (JPSS-1)","OBJECT_ID":"2017-073A","EPOCH":"2026-03-06T14:03:56.944800","MEAN_MOTION":14.1953512,"ECCENTRICITY":0.00010779,"INCLINATION":98.7689,"RA_OF_ASC_NODE":6.0041,"ARG_OF_PERICENTER":141.2468,"MEAN_ANOMALY":218.8786,"EPHEMERIS_TYPE":0,"CLASSIFICATION_TYPE":"U","NORAD_CAT_ID":43013,"ELEMENT_SET_NO":999,"REV_AT_EPOCH":42991,"BSTAR":8.1391e-5,"MEAN_MOTION_DOT":1.27e-6,"MEAN_MOTION_DDOT":0}]
